start=new Date('2022-08-06T00:00:00.000Z').valueOf();
sats=[{"BSTAR":"0.00001619100000","CLASSIFICATION_TYPE":"U","REV_AT_EPOCH":"3233","MEAN_MOTION":"15.08838006","SITE":"AFETR","DECAY_DATE":null,"TLE_LINE2":"2 50803  53.2185 299.1443 0001522  54.1181 305.9952 15.08838006 32337","PERIOD":"95.438","OBJECT_NAME":"STARLINK-3321","OBJECT_ID":"2022-001A","ECCENTRICITY":"0.00015220","COUNTRY_CODE":"US","MEAN_ANOMALY":"305.9952","MEAN_ELEMENT_THEORY":"SGP4","PERIAPSIS":"538.699","OBJECT_TYPE":"PAYLOAD","MEAN_MOTION_DOT":"-0.00000030","ELEMENT_SET_NO":"999","ARG_OF_PERICENTER":"54.1181","LAUNCH_DATE":"2022-01-06","NORAD_CAT_ID":"50803","TIME_SYSTEM":"UTC","TLE_LINE1":"1 50803U 22001A   22217.63777309 -.00000030  00000-0  16191-4 0  9993","GP_ID":"209658184","EPHEMERIS_TYPE":"0","INCLINATION":"53.2185","APOAPSIS":"540.804","RA_OF_ASC_NODE":"299.1443","MEAN_MOTION_DDOT":"0.0000000000000","FILE":"3530042","CENTER_NAME":"EARTH","RCS_SIZE":"LARGE","SEMIMAJOR_AXIS":"6917.886","EPOCH":"2022-08-05T15:18:23.594976","REF_FRAME":"TEME"},{"APOAPSIS":"540.842","INCLINATION":"53.2186","MEAN_MOTION_DDOT":"0.0000000000000","RA_OF_ASC_NODE":"289.8913","FILE":"3529733","CENTER_NAME":"EARTH","RCS_SIZE":"LARGE","EPOCH":"2022-08-05T11:21:15.689664","SEMIMAJOR_AXIS":"6917.882","REF_FRAME":"TEME","ELEMENT_SET_NO":"999","ARG_OF_PERICENTER":"56.9217","TIME_SYSTEM":"UTC","NORAD_CAT_ID":"50804","LAUNCH_DATE":"2022-01-06","EPHEMERIS_TYPE":"0","GP_ID":"209626196","TLE_LINE1":"1 50804U 22001B   22217.47309826  .00001290  00000-0  99129-4 0  9991","MEAN_ANOMALY":"303.1926","MEAN_ELEMENT_THEORY":"SGP4","ECCENTRICITY":"0.00015820","COUNTRY_CODE":"US","PERIAPSIS":"538.653","OBJECT_TYPE":"PAYLOAD","MEAN_MOTION_DOT":"0.00001290","CLASSIFICATION_TYPE":"U","BSTAR":"0.00009912900000","REV_AT_EPOCH":"3244","MEAN_MOTION":"15.08839436","DECAY_DATE":null,"SITE":"AFETR","PERIOD":"95.438","TLE_LINE2":"2 50804  53.2186 289.8913 0001582  56.9217 303.1926 15.08839436 32444","OBJECT_ID":"2022-001B","OBJECT_NAME":"STARLINK-3323"},{"MEAN_ELEMENT_THEORY":"SGP4","MEAN_ANOMALY":"298.8433","COUNTRY_CODE":"US","ECCENTRICITY":"0.00012720","PERIAPSIS":"538.855","OBJECT_TYPE":"PAYLOAD","MEAN_MOTION_DOT":"0.00001720","CLASSIFICATION_TYPE":"U","BSTAR":"0.00012609000000","REV_AT_EPOCH":"3247","MEAN_MOTION":"15.08843275","DECAY_DATE":null,"SITE":"AFETR","PERIOD":"95.437","TLE_LINE2":"2 50805  53.2180 289.0141 0001272  61.2686 298.8433 15.08843275 32471","OBJECT_ID":"2022-001C","OBJECT_NAME":"STARLINK-3333","APOAPSIS":"540.615","INCLINATION":"53.2180","RA_OF_ASC_NODE":"289.0141","MEAN_MOTION_DDOT":"0.0000000000000","CENTER_NAME":"EARTH","FILE":"3530042","RCS_SIZE":"LARGE","EPOCH":"2022-08-05T16:02:06.275616","SEMIMAJOR_AXIS":"6917.870","REF_FRAME":"TEME","ELEMENT_SET_NO":"999","ARG_OF_PERICENTER":"61.2686","TIME_SYSTEM":"UTC","LAUNCH_DATE":"2022-01-06","NORAD_CAT_ID":"50805","EPHEMERIS_TYPE":"0","GP_ID":"209659185","TLE_LINE1":"1 50805U 22001C   22217.66812819  .00001720  00000-0  12609-3 0  9999"},{"ECCENTRICITY":"0.00015720","COUNTRY_CODE":"US","MEAN_ELEMENT_THEORY":"SGP4","MEAN_ANOMALY":"303.4832","OBJECT_TYPE":"PAYLOAD","PERIAPSIS":"538.646","MEAN_MOTION_DOT":"-0.00000016","BSTAR":"0.00001707100000","CLASSIFICATION_TYPE":"U","REV_AT_EPOCH":"3245","MEAN_MOTION":"15.08843763","SITE":"AFETR","DECAY_DATE":null,"OBJECT_NAME":"STARLINK-3335","OBJECT_ID":"2022-001D","TLE_LINE2":"2 50806  53.2163 289.6200 0001572  56.6310 303.4832 15.08843763 32456","PERIOD":"95.437","RA_OF_ASC_NODE":"289.6200","MEAN_MOTION_DDOT":"0.0000000000000","INCLINATION":"53.2163","APOAPSIS":"540.821","RCS_SIZE":"LARGE","FILE":"3530042","CENTER_NAME":"EARTH","SEMIMAJOR_AXIS":"6917.869","EPOCH":"2022-08-05T12:46:02.194176","REF_FRAME":"TEME","ELEMENT_SET_NO":"999","ARG_OF_PERICENTER":"56.6310","NORAD_CAT_ID":"50806","LAUNCH_DATE":"2022-01-06","TIME_SYSTEM":"UTC","TLE_LINE1":"1 50806U 22001D   22217.53196984 -.00000016  00000-0  17071-4 0  9991","GP_ID":"209658927","EPHEMERIS_TYPE":"0"},{"SEMIMAJOR_AXIS":"6917.877","EPOCH":"2022-08-05T17:11:00.358368","REF_FRAME":"TEME","RA_OF_ASC_NODE":"288.8145","MEAN_MOTION_DDOT":"0.0000000000000","INCLINATION":"53.2180","APOAPSIS":"540.791","RCS_SIZE":"LARGE","CENTER_NAME":"EARTH","FILE":"3530042","NORAD_CAT_ID":"50807","LAUNCH_DATE":"2022-01-06","TIME_SYSTEM":"UTC","GP_ID":"209657685","TLE_LINE1":"1 50807U 22001E   22217.71597637  .00001796  00000-0  13089-3 0  9991","EPHEMERIS_TYPE":"0","ELEMENT_SET_NO":"999","ARG_OF_PERICENTER":"64.4343","MEAN_MOTION_DOT":"0.00001796","ECCENTRICITY":"0.00015170","COUNTRY_CODE":"US","MEAN_ELEMENT_THEORY":"SGP4","MEAN_ANOMALY":"295.6806","OBJECT_TYPE":"PAYLOAD","PERIAPSIS":"538.693","DECAY_DATE":null,"SITE":"AFETR","OBJECT_ID":"2022-001E","OBJECT_NAME":"STARLINK-3353","TLE_LINE2":"2 50807  53.2180 288.8145 0001517  64.4343 295.6806 15.08841091 32485","PERIOD":"95.437","BSTAR":"0.00013089000000","CLASSIFICATION_TYPE":"U","MEAN_MOTION":"15.08841091","REV_AT_EPOCH":"3248"},{"MEAN_MOTION_DOT":"-0.00000068","ECCENTRICITY":"0.00016000","COUNTRY_CODE":"US","MEAN_ELEMENT_THEORY":"SGP4","MEAN_ANOMALY":"297.7761","OBJECT_TYPE":"PAYLOAD","PERIAPSIS":"538.655","DECAY_DATE":null,"SITE":"AFETR","OBJECT_NAME":"STARLINK-3355","OBJECT_ID":"2022-001F","TLE_LINE2":"2 50808  53.2168 289.3617 0001600  62.3393 297.7761 15.08834765 32468","PERIOD":"95.438","BSTAR":"0.00001385200000","CLASSIFICATION_TYPE":"U","MEAN_MOTION":"15.08834765","REV_AT_EPOCH":"3246","SEMIMAJOR_AXIS":"6917.896","EPOCH":"2022-08-05T14:10:50.499264","REF_FRAME":"TEME","MEAN_MOTION_DDOT":"0.0000000000000","RA_OF_ASC_NODE":"289.3617","INCLINATION":"53.2168","APOAPSIS":"540.868","RCS_SIZE":"LARGE","FILE":"3530042","CENTER_NAME":"EARTH","LAUNCH_DATE":"2022-01-06","NORAD_CAT_ID":"50808","TIME_SYSTEM":"UTC","TLE_LINE1":"1 50808U 22001F   22217.59086226 -.00000068  00000-0  13852-4 0  9996","GP_ID":"209658434","EPHEMERIS_TYPE":"0","ELEMENT_SET_NO":"999","ARG_OF_PERICENTER":"62.3393"},{"ELEMENT_SET_NO":"999","ARG_OF_PERICENTER":"55.2350","TIME_SYSTEM":"UTC","LAUNCH_DATE":"2022-01-06","NORAD_CAT_ID":"50809","EPHEMERIS_TYPE":"0","TLE_LINE1":"1 50809U 22001G   22217.59453064  .00002225  00000-0  15780-3 0  9992","GP_ID":"209658686","RA_OF_ASC_NODE":"289.3473","MEAN_MOTION_DDOT":"0.0000000000000","APOAPSIS":"540.873","INCLINATION":"53.2173","RCS_SIZE":"LARGE","CENTER_NAME":"EARTH","FILE":"3530042","EPOCH":"2022-08-05T14:16:07.447296","SEMIMAJOR_AXIS":"6917.868","REF_FRAME":"TEME","CLASSIFICATION_TYPE":"U","BSTAR":"0.00015780000000","MEAN_MOTION":"15.08843990","REV_AT_EPOCH":"3246","SITE":"AFETR","DECAY_DATE":null,"OBJECT_ID":"2022-001G","OBJECT_NAME":"STARLINK-3232","PERIOD":"95.437","TLE_LINE2":"2 50809  53.2173 289.3473 0001647  55.2350 304.8797 15.08843990 32469","MEAN_ELEMENT_THEORY":"SGP4","MEAN_ANOMALY":"304.8797","COUNTRY_CODE":"US","ECCENTRICITY":"0.00016470","OBJECT_TYPE":"PAYLOAD","PERIAPSIS":"538.594","MEAN_MOTION_DOT":"0.00002225"},{"ELEMENT_SET_NO":"999","ARG_OF_PERICENTER":"54.7446","TIME_SYSTEM":"UTC","LAUNCH_DATE":"2022-01-06","NORAD_CAT_ID":"50810","EPHEMERIS_TYPE":"0","TLE_LINE1":"1 50810U 22001H   22217.58718113  .00000600  00000-0  55808-4 0  9993","GP_ID":"209659427","MEAN_MOTION_DDOT":"0.0000000000000","RA_OF_ASC_NODE":"289.3945","APOAPSIS":"540.918","INCLINATION":"53.2176","RCS_SIZE":"LARGE","FILE":"3530042","CENTER_NAME":"EARTH","EPOCH":"2022-08-05T14:05:32.449632","SEMIMAJOR_AXIS":"6917.898","REF_FRAME":"TEME","CLASSIFICATION_TYPE":"U","BSTAR":"0.00005580800000","REV_AT_EPOCH":"3246","MEAN_MOTION":"15.08834122","DECAY_DATE":null,"SITE":"AFETR","OBJECT_ID":"2022-001H","OBJECT_NAME":"STARLINK-3348","PERIOD":"95.438","TLE_LINE2":"2 50810  53.2176 289.3945 0001669  54.7446 305.3702 15.08834122 32461","MEAN_ANOMALY":"305.3702","MEAN_ELEMENT_THEORY":"SGP4","ECCENTRICITY":"0.00016690","COUNTRY_CODE":"US","OBJECT_TYPE":"PAYLOAD","PERIAPSIS":"538.609","MEAN_MOTION_DOT":"0.00000600"},{"MEAN_MOTION_DOT":"0.00002230","OBJECT_TYPE":"PAYLOAD","PERIAPSIS":"538.482","ECCENTRICITY":"0.00018330","COUNTRY_CODE":"US","MEAN_ANOMALY":"308.5081","MEAN_ELEMENT_THEORY":"SGP4","OBJECT_ID":"2022-001J","OBJECT_NAME":"STARLINK-3347","TLE_LINE2":"2 50811  53.2178 288.8292 0001833  51.6076 308.5081 15.08838592 33765","PERIOD":"95.438","DECAY_DATE":null,"SITE":"AFETR","MEAN_MOTION":"15.08838592","REV_AT_EPOCH":"3376","BSTAR":"0.00015819000000","CLASSIFICATION_TYPE":"U","REF_FRAME":"TEME","SEMIMAJOR_AXIS":"6917.885","EPOCH":"2022-08-05T17:05:42.418464","RCS_SIZE":"LARGE","FILE":"3529873","CENTER_NAME":"EARTH","RA_OF_ASC_NODE":"288.8292","MEAN_MOTION_DDOT":"0.0000000000000","INCLINATION":"53.2178","APOAPSIS":"541.018","GP_ID":"209631222","TLE_LINE1":"1 50811U 22001J   22217.71229651  .00002230  00000-0  15819-3 0  9991","EPHEMERIS_TYPE":"0","LAUNCH_DATE":"2022-01-06","NORAD_CAT_ID":"50811","TIME_SYSTEM":"UTC","ARG_OF_PERICENTER":"51.6076","ELEMENT_SET_NO":"999"},{"CLASSIFICATION_TYPE":"U","BSTAR":"0.00003237800000","MEAN_MOTION":"15.08839851","REV_AT_EPOCH":"3246","DECAY_DATE":null,"SITE":"AFETR","PERIOD":"95.438","TLE_LINE2":"2 50812  53.2172 289.2689 0001683  47.5640 312.5495 15.08839851 32468","OBJECT_NAME":"STARLINK-3338","OBJECT_ID":"2022-001K","MEAN_ANOMALY":"312.5495","MEAN_ELEMENT_THEORY":"SGP4","COUNTRY_CODE":"US","ECCENTRICITY":"0.00016830","PERIAPSIS":"538.582","OBJECT_TYPE":"PAYLOAD","MEAN_MOTION_DOT":"0.00000227","ELEMENT_SET_NO":"999","ARG_OF_PERICENTER":"47.5640","TIME_SYSTEM":"UTC","LAUNCH_DATE":"2022-01-06","NORAD_CAT_ID":"50812","EPHEMERIS_TYPE":"0","GP_ID":"209657935","TLE_LINE1":"1 50812U 22001K   22217.61021108  .00000227  00000-0  32378-4 0  9992","APOAPSIS":"540.910","INCLINATION":"53.2172","RA_OF_ASC_NODE":"289.2689","MEAN_MOTION_DDOT":"0.0000000000000","FILE":"3530042","CENTER_NAME":"EARTH","RCS_SIZE":"LARGE","EPOCH":"2022-08-05T14:38:42.237312","SEMIMAJOR_AXIS":"6917.881","REF_FRAME":"TEME"}];
